63748,KUIPER-00035,2025,96.67,-1.0,+,51.89,Active,0,LEO,USA,USA,Unknown,Unknown,Unknown,1 63748U 25088AA  25221.58335648 -.00027484  00000+0 -28497-2 0  9993,2 63748  51.8940 332.2662 0005368 108.4645  39.1570 14.89393174  4111,14.89393174,0.0005368,LEO
63749,KUIPER-00037,2025,96.59,-1.0,+,51.89,Active,0,LEO,USA,USA,Unknown,Unknown,Unknown,1 63749U 25088AB  25221.58335648 -.00028894  00000+0 -29017-2 0  9999,2 63749  51.8941 331.3607 0005975  45.7829  62.4745 14.90693635  5383,14.90693635,0.0005975,LEO
63750,KUIPER-00038,2025,94.21,-1.0,+,51.88,Active,0,LEO,USA,USA,Unknown,Unknown,Unknown,1 63750U 25088AC  25221.58335648 -.00890919  00000+0 -34799-1 0  9998,2 63750  51.8779 322.4122 0005246 103.4943 125.8842 15.28180276  5754,15.28180276,0.0005246,LEO
64500,KUIPER-00039,2025,93.79,-1.0,+,51.87,Active,0,LEO,USA,USA,Unknown,Unknown,Unknown,1 64500U 25134A   25221.39784471  .00026389  00000+0  76478-3 0  9997,2 64500  51.8687 104.8182 0007525 279.4032  80.6103 15.35348458  8453,15.35348458,0.0007525,LEO
64501,KUIPER-00040,2025,95.06,-1.0,+,51.87,Active,0,LEO,USA,USA,Unknown,Unknown,Unknown,1 64501U 25134B   25221.58335648  .00048500  00000+0  25665-2 0  9997,2 64501  51.8779 106.1702 0013149 288.2506 336.8579 15.14897921  4890,15.14897921,0.0013149,LEO
64502,KUIPER-00041,2025,95.27,-1.0,+,51.88,Active,0,LEO,USA,USA,Unknown,Unknown,Unknown,1 64502U 25134C   25221.58335648 -.00792563  00000+0 -49156-1 0  9995,2 64502  51.8888 106.5383 0009411 287.7014 119.1186 15.12056022  5115,15.12056022,0.0009411,LEO
64503,KUIPER-00042,2025,94.82,-1.0,+,51.88,Active,0,LEO,USA,USA,Unknown,Unknown,Unknown,1 64503U 25134D   25221.58335648 -.01187555  00000+0 -61089-1 0  9995,2 64503  51.8768 105.0786 0011123 290.0422 168.2438 15.18802383  5016,15.18802383,0.0011123,LEO
64504,KUIPER-00043,2025,93.82,-1.0,+,51.87,Active,0,LEO,USA,USA,Unknown,Unknown,Unknown,1 64504U 25134E   25221.40239654  .00025192  00000+0  74197-3 0  9998,2 64504  51.8708 104.8537 0007986 281.1673  78.8415 15.34863495  8454,15.34863495,0.0007986,LEO
